{"type": "FeatureCollection", "features": [ {"type": "Feature", "properties": {"norad_id": 67011, "name": "STARLINK-36167", "group": "last-30-days", "lat": -11.240435020242545, "lon": 104.96191552229196, "alt_km": 365.2712641657581, "timestamp": "2025-12-27T15:27:09.833084+00:00", "meta": {"OBJECT_NAME": "STARLINK-36167", "OBJECT_ID": "2025-293J", "EPOCH": "2025-12-27T06:00:02.000160", "MEAN_MOTION": 15.70348341, "ECCENTRICITY": 0.00036262, "INCLINATION": 69.9979, "RA_OF_ASC_NODE": 281.9166, "ARG_OF_PERICENTER": 273.2154, "MEAN_ANOMALY": 213.8694, "EPHEMERIS_TYPE": 0, "CLASSIFICATION_TYPE": "U", "NORAD_CAT_ID": 67011, "ELEMENT_SET_NO": 999, "REV_AT_EPOCH": 244, "BSTAR": -0.014901386, "MEAN_MOTION_DOT": -0.01620668, "MEAN_MOTION_DDOT": 0}, "tle": {"line1": "1 67011U 25293J   25361.25002315 -.01620668  00000+0 -14901-1 0  9997", "line2": "2 67011  69.9979 281.9166 0003626 273.2154 213.8694 15.70348341  2449"}}, "geometry": {"type": "Point", "coordinates": [104.96191552229196, -11.240435020242545]}}, {"type": "Feature", "properties": {"norad_id": 67012, "name": "STARLINK-36175", "group": "last-30-days", "lat": -15.36654814545569, "lon": 106.55067005970467, "alt_km": 365.6607790129101, "timestamp": "2025-12-27T15:27:09.833094+00:00", "meta": {"OBJECT_NAME": "STARLINK-36175", "OBJECT_ID": "2025-293K", "EPOCH": "2025-12-27T06:00:02.000160", "MEAN_MOTION": 15.70317242, "ECCENTRICITY": 0.00034787, "INCLINATION": 69.9982, "RA_OF_ASC_NODE": 281.9115, "ARG_OF_PERICENTER": 273.5791, "MEAN_ANOMALY": 217.9612, "EPHEMERIS_TYPE": 0, "CLASSIFICATION_TYPE": "U", "NORAD_CAT_ID": 67012, "ELEMENT_SET_NO": 999, "REV_AT_EPOCH": 244, "BSTAR": -0.014987463, "MEAN_MOTION_DOT": -0.01626975, "MEAN_MOTION_DDOT": 0}, "tle": {"line1": "1 67012U 25293K   25361.25002315 -.01626975  00000+0 -14987-1 0  9999", "line2": "2 67012  69.9982 281.9115 0003478 273.5791 217.9612 15.70317242  2444"}}, "geometry": {"type": "Point", "coordinates": [106.55067005970467, -15.36654814545569]}}, {"type": "Feature", "properties": {"norad_id": 67013, "name": "STARLINK-35856", "group": "last-30-days", "lat": -17.51411270784598, "lon": 107.40314944788798, "alt_km": 365.9734089482099, "timestamp": "2025-12-27T15:27:09.833104+00:00", "meta": {"OBJECT_NAME": "STARLINK-35856", "OBJECT_ID": "2025-293L", "EPOCH": "2025-12-27T06:00:02.000160", "MEAN_MOTION": 15.70287672, "ECCENTRICITY": 0.00032849, "INCLINATION": 69.9981, "RA_OF_ASC_NODE": 281.9084, "ARG_OF_PERICENTER": 275.9589, "MEAN_ANOMALY": 217.9168, "EPHEMERIS_TYPE": 0, "CLASSIFICATION_TYPE": "U", "NORAD_CAT_ID": 67013, "ELEMENT_SET_NO": 999, "REV_AT_EPOCH": 244, "BSTAR": -0.014939845, "MEAN_MOTION_DOT": -0.01620438, "MEAN_MOTION_DDOT": 0}, "tle": {"line1": "1 67013U 25293L   25361.25002315 -.01620438  00000+0 -14940-1 0  9997", "line2": "2 67013  69.9981 281.9084 0003284 275.9589 217.9168 15.70287672  2444"}}, "geometry": {"type": "Point", "coordinates": [107.40314944788798, -17.51411270784598]}}, {"type": "Feature", "properties": {"norad_id": 67014, "name": "STARLINK-36207", "group": "last-30-days", "lat": -19.583002949841106, "lon": 108.24646513883089, "alt_km": 366.00937691934087, "timestamp": "2025-12-27T15:27:09.833116+00:00", "meta": {"OBJECT_NAME": "STARLINK-36207", "OBJECT_ID": "2025-293M", "EPOCH": "2025-12-27T06:00:02.000160", "MEAN_MOTION": 15.70273531, "ECCENTRICITY": 0.00033662, "INCLINATION": 69.9983, "RA_OF_ASC_NODE": 281.9068, "ARG_OF_PERICENTER": 273.16, "MEAN_ANOMALY": 222.9591, "EPHEMERIS_TYPE": 0, "CLASSIFICATION_TYPE": "U", "NORAD_CAT_ID": 67014, "ELEMENT_SET_NO": 999, "REV_AT_EPOCH": 250, "BSTAR": -0.015003204, "MEAN_MOTION_DOT": -0.01625751, "MEAN_MOTION_DDOT": 0}, "tle": {"line1": "1 67014U 25293M   25361.25002315 -.01625751  00000+0 -15003-1 0  9992", "line2": "2 67014  69.9983 281.9068 0003366 273.1600 222.9591 15.70273531  2506"}}, "geometry": {"type": "Point", "coordinates": [108.24646513883089, -19.583002949841106]}}, {"type": "Feature", "properties": {"norad_id": 67015, "name": "STARLINK-36093", "group": "last-30-days", "lat": -23.676036570330027, "lon": 109.98520773789525, "alt_km": 366.2643792691015, "timestamp": "2025-12-27T15:27:09.833127+00:00", "meta": {"OBJECT_NAME": "STARLINK-36093", "OBJECT_ID": "2025-293N", "EPOCH": "2025-12-27T06:00:02.000160", "MEAN_MOTION": 15.70236813, "ECCENTRICITY": 0.00033591, "INCLINATION": 69.9981, "RA_OF_ASC_NODE": 281.9005, "ARG_OF_PERICENTER": 272.4109, "MEAN_ANOMALY": 228.163, "EPHEMERIS_TYPE": 0, "CLASSIFICATION_TYPE": "U", "NORAD_CAT_ID": 67015, "ELEMENT_SET_NO": 999, "REV_AT_EPOCH": 244, "BSTAR": -0.015003065, "MEAN_MOTION_DOT": -0.01623509, "MEAN_MOTION_DDOT": 0}, "tle": {"line1": "1 67015U 25293N   25361.25002315 -.01623509  00000+0 -15003-1 0  9992", "line2": "2 67015  69.9981 281.9005 0003359 272.4109 228.1630 15.70236813  2441"}}, "geometry": {"type": "Point", "coordinates": [109.98520773789525, -23.676036570330027]}}, {"type": "Feature", "properties": {"norad_id": 67016, "name": "STARLINK-36120", "group": "last-30-days", "lat": -21.568759745852766, "lon": 109.07638860944581, "alt_km": 366.1146868861724, "timestamp": "2025-12-27T15:27:09.833137+00:00", "meta": {"OBJECT_NAME": "STARLINK-36120", "OBJECT_ID": "2025-293P", "EPOCH": "2025-12-27T06:00:02.000160", "MEAN_MOTION": 15.7026061, "ECCENTRICITY": 0.00033582, "INCLINATION": 69.9984, "RA_OF_ASC_NODE": 281.9035, "ARG_OF_PERICENTER": 272.4509, "MEAN_ANOMALY": 225.8208, "EPHEMERIS_TYPE": 0, "CLASSIFICATION_TYPE": "U", "NORAD_CAT_ID": 67016, "ELEMENT_SET_NO": 999, "REV_AT_EPOCH": 244, "BSTAR": -0.015014254, "MEAN_MOTION_DOT": -0.01626025, "MEAN_MOTION_DDOT": 0}, "tle": {"line1": "1 67016U 25293P   25361.25002315 -.01626025  00000+0 -15014-1 0  9991", "line2": "2 67016  69.9984 281.9035 0003358 272.4509 225.8208 15.70260610  2448"}}, "geometry": {"type": "Point", "coordinates": [109.07638860944581, -21.568759745852766]}}, {"type": "Feature", "properties": {"norad_id": 67017, "name": "STARLINK-35498", "group": "last-30-days", "lat": -25.702911842292092, "lon": 110.88975104007088, "alt_km": 366.3864361335973, "timestamp": "2025-12-27T15:27:09.833147+00:00", "meta": {"OBJECT_NAME": "STARLINK-35498", "OBJECT_ID": "2025-293Q", "EPOCH": "2025-12-27T06:00:02.000160", "MEAN_MOTION": 15.70222034, "ECCENTRICITY": 0.00034707, "INCLINATION": 69.9976, "RA_OF_ASC_NODE": 281.8974, "ARG_OF_PERICENTER": 273.2001, "MEAN_ANOMALY": 229.5868, "EPHEMERIS_TYPE": 0, "CLASSIFICATION_TYPE": "U", "NORAD_CAT_ID": 67017, "ELEMENT_SET_NO": 999, "REV_AT_EPOCH": 263, "BSTAR": -0.015032146, "MEAN_MOTION_DOT": -0.01625501, "MEAN_MOTION_DDOT": 0}, "tle": {"line1": "1 67017U 25293Q   25361.25002315 -.01625501  00000+0 -15032-1 0  9990", "line2": "2 67017  69.9976 281.8974 0003470 273.2001 229.5868 15.70222034  2634"}}, "geometry": {"type": "Point", "coordinates": [110.88975104007088, -25.702911842292092]}}, {"type": "Feature", "properties": {"norad_id": 67018, "name": "STARLINK-36106", "group": "last-30-days", "lat": -27.73227997368379, "lon": 111.82965081839598, "alt_km": 366.50927583759494, "timestamp": "2025-12-27T15:27:09.833160+00:00", "meta": {"OBJECT_NAME": "STARLINK-36106", "OBJECT_ID": "2025-293R", "EPOCH": "2025-12-27T06:00:02.000160", "MEAN_MOTION": 15.70207953, "ECCENTRICITY": 0.00035069, "INCLINATION": 69.9977, "RA_OF_ASC_NODE": 281.8946, "ARG_OF_PERICENTER": 273.5423, "MEAN_ANOMALY": 231.467, "EPHEMERIS_TYPE": 0, "CLASSIFICATION_TYPE": "U", "NORAD_CAT_ID": 67018, "ELEMENT_SET_NO": 999, "REV_AT_EPOCH": 255, "BSTAR": -0.01509517, "MEAN_MOTION_DOT": -0.01630727, "MEAN_MOTION_DDOT": 0}, "tle": {"line1": "1 67018U 25293R   25361.25002315 -.01630727  00000+0 -15095-1 0  9996", "line2": "2 67018  69.9977 281.8946 0003506 273.5423 231.4670 15.70207953  2553"}}, "geometry": {"type": "Point", "coordinates": [111.82965081839598, -27.73227997368379]}}, {"type": "Feature", "properties": {"norad_id": 67019, "name": "STARLINK-35688", "group": "last-30-days", "lat": -29.688476012008433, "lon": 112.7723885384041, "alt_km": 366.58853228834505, "timestamp": "2025-12-27T15:27:09.833170+00:00", "meta": {"OBJECT_NAME": "STARLINK-35688", "OBJECT_ID": "2025-293S", "EPOCH": "2025-12-27T06:00:02.000160", "MEAN_MOTION": 15.70189952, "ECCENTRICITY": 0.00032871, "INCLINATION": 69.9975, "RA_OF_ASC_NODE": 281.8916, "ARG_OF_PERICENTER": 271.2141, "MEAN_ANOMALY": 235.9384, "EPHEMERIS_TYPE": 0, "CLASSIFICATION_TYPE": "U", "NORAD_CAT_ID": 67019, "ELEMENT_SET_NO": 999, "REV_AT_EPOCH": 263, "BSTAR": -0.015023939, "MEAN_MOTION_DOT": -0.01622624, "MEAN_MOTION_DDOT": 0}, "tle": {"line1": "1 67019U 25293S   25361.25002315 -.01622624  00000+0 -15024-1 0  9996", "line2": "2 67019  69.9975 281.8916 0003287 271.2141 235.9384 15.70189952  2635"}}, "geometry": {"type": "Point", "coordinates": [112.7723885384041, -29.688476012008433]}}, {"type": "Feature", "properties": {"norad_id": 67020, "name": "STARLINK-36172", "group": "last-30-days", "lat": -31.88112124727775, "lon": 113.8787966590624, "alt_km": 366.7182760986234, "timestamp": "2025-12-27T15:27:09.833180+00:00", "meta": {"OBJECT_NAME": "STARLINK-36172", "OBJECT_ID": "2025-293T", "EPOCH": "2025-12-27T06:00:02.000160", "MEAN_MOTION": 15.7016299, "ECCENTRICITY": 0.00033933, "INCLINATION": 69.9977, "RA_OF_ASC_NODE": 281.8891, "ARG_OF_PERICENTER": 271.9719, "MEAN_ANOMALY": 237.6138, "EPHEMERIS_TYPE": 0, "CLASSIFICATION_TYPE": "U", "NORAD_CAT_ID": 67020, "ELEMENT_SET_NO": 999, "REV_AT_EPOCH": 255, "BSTAR": -0.015061433, "MEAN_MOTION_DOT": -0.01624675, "MEAN_MOTION_DDOT": 0}, "tle": {"line1": "1 67020U 25293T   25361.25002315 -.01624675  00000+0 -15061-1 0  9997", "line2": "2 67020  69.9977 281.8891 0003393 271.9719 237.6138 15.70162990  2557"}}, "geometry": {"type": "Point", "coordinates": [113.8787966590624, -31.88112124727775]}}]}